AUTCUBE 2               
1 43681U 18084K   26068.48152820  .00005282  00000+0  33524-3 0  9991
2 43681  98.0799 269.3640 0009685  28.2406 331.9345 15.09319394401889
STARLINK-4489           
1 53542U 22101R   26068.43087855 -.00001037  00000+0 -47095-4 0  9998
2 53542  53.2174  65.2842 0001421  89.8496 270.2659 15.08827472196957
